[
    {
        "Altitude(m)": 607886.7239156974,
        "Argument of Periapsis(deg)": 0.0,
        "Eccentricity": 0.0,
        "Inclination(deg)": 60.0,
        "Latitude(deg)": 40.99853159614318,
        "Longitude(deg)": 154.9730238992737,
        "Mean Anomaly(deg)": 49.09089999999999,
        "RAAN(deg)": 225.0,
        "Satellite Name": "Test1 993",
        "Satellite Number": 993,
        "Semi-Major Axis(m)": 6980739.136638005,
        "Time(s)": 0
    },
    {
        "Altitude(m)": 607987.6378595829,
        "Argument of Periapsis(deg)": 0.00010418945913296404,
        "Eccentricity": 0.0,
        "Inclination(deg)": 60.0,
        "Latitude(deg)": 41.46362120809365,
        "Longitude(deg)": 155.47725318058045,
        "Mean Anomaly(deg)": 49.711006145461845,
        "RAAN(deg)": 224.99957995086024,
        "Satellite Name": "Test1 993",
        "Satellite Number": 993,
        "Semi-Major Axis(m)": 6980739.136638005,
        "Time(s)": 10
    }
]